{
  "links" : {
    "next" : "https://api.nasa.gov/neo/rest/v1/feed?start_date=2004-02-09&end_date=2004-02-09&detailed=true&api_key=t0TVs3DtDT2H8Oy2Zy8m2eVrNsAVKAexjcZXUckd",
    "prev" : "https://api.nasa.gov/neo/rest/v1/feed?start_date=2004-02-07&end_date=2004-02-07&detailed=true&api_key=t0TVs3DtDT2H8Oy2Zy8m2eVrNsAVKAexjcZXUckd",
    "self" : "https://api.nasa.gov/neo/rest/v1/feed?start_date=2004-02-08&end_date=2004-02-08&detailed=true&api_key=t0TVs3DtDT2H8Oy2Zy8m2eVrNsAVKAexjcZXUckd"
  },
  "element_count" : 5,
  "near_earth_objects" : {
    "2004-02-08" : [ {
      "links" : {
        "self" : "https://api.nasa.gov/neo/rest/v1/neo/2455176?api_key=t0TVs3DtDT2H8Oy2Zy8m2eVrNsAVKAexjcZXUckd"
      },
      "neo_reference_id" : "2455176",
      "name" : "455176 (1999 VF22)",
      "nasa_jpl_url" : "http://ssd.jpl.nasa.gov/sbdb.cgi?sstr=2455176",
      "absolute_magnitude_h" : 20.6,
      "estimated_diameter" : {
        "kilometers" : {
          "estimated_diameter_min" : 0.2016299194,
          "estimated_diameter_max" : 0.4508582062
        },
        "meters" : {
          "estimated_diameter_min" : 201.6299194428,
          "estimated_diameter_max" : 450.8582061718
        },
        "miles" : {
          "estimated_diameter_min" : 0.1252869847,
          "estimated_diameter_max" : 0.2801502144
        },
        "feet" : {
          "estimated_diameter_min" : 661.5155049046,
          "estimated_diameter_max" : 1479.1936371367
        }
      },
      "is_potentially_hazardous_asteroid" : true,
      "close_approach_data" : [ {
        "close_approach_date" : "2004-02-08",
        "epoch_date_close_approach" : 1076227200000,
        "relative_velocity" : {
          "kilometers_per_second" : "35.2310513076",
          "kilometers_per_hour" : "126831.7847072102",
          "miles_per_hour" : "78808.3386698774"
        },
        "miss_distance" : {
          "astronomical" : "0.3142697745",
          "lunar" : "122.2509460449",
          "kilometers" : "47014092",
          "miles" : "29213202"
        },
        "orbiting_body" : "Earth"
      } ],
      "orbital_data" : {
        "orbit_id" : "29",
        "orbit_determination_date" : "2017-04-06 09:19:59",
        "orbit_uncertainty" : "0",
        "minimum_orbit_intersection" : ".0346675",
        "jupiter_tisserand_invariant" : "4.638",
        "epoch_osculation" : "2454749.5",
        "eccentricity" : ".7386620563745934",
        "semi_major_axis" : "1.31318971233129",
        "inclination" : "3.908082421172836",
        "ascending_node_longitude" : "3.756316202594528",
        "orbital_period" : "549.6543059030953",
        "perihelion_distance" : ".3431862990106985",
        "perihelion_argument" : "271.3869049158356",
        "aphelion_distance" : "2.283193125651881",
        "perihelion_time" : "2454734.052270793490",
        "mean_anomaly" : "10.11760019819447",
        "mean_motion" : ".6549571178352025",
        "equinox" : "J2000"
      }
    }, {
      "links" : {
        "self" : "https://api.nasa.gov/neo/rest/v1/neo/3763621?api_key=t0TVs3DtDT2H8Oy2Zy8m2eVrNsAVKAexjcZXUckd"
      },
      "neo_reference_id" : "3763621",
      "name" : "(2016 VS5)",
      "nasa_jpl_url" : "http://ssd.jpl.nasa.gov/sbdb.cgi?sstr=3763621",
      "absolute_magnitude_h" : 19.7,
      "estimated_diameter" : {
        "kilometers" : {
          "estimated_diameter_min" : 0.3051792326,
          "estimated_diameter_max" : 0.6824015094
        },
        "meters" : {
          "estimated_diameter_min" : 305.1792325939,
          "estimated_diameter_max" : 682.4015094011
        },
        "miles" : {
          "estimated_diameter_min" : 0.1896295249,
          "estimated_diameter_max" : 0.4240245083
        },
        "feet" : {
          "estimated_diameter_min" : 1001.2442334633,
          "estimated_diameter_max" : 2238.8501681036
        }
      },
      "is_potentially_hazardous_asteroid" : false,
      "close_approach_data" : [ {
        "close_approach_date" : "2004-02-08",
        "epoch_date_close_approach" : 1076227200000,
        "relative_velocity" : {
          "kilometers_per_second" : "12.0347677163",
          "kilometers_per_hour" : "43325.163778504",
          "miles_per_hour" : "26920.5719044821"
        },
        "miss_distance" : {
          "astronomical" : "0.3192186979",
          "lunar" : "124.176071167",
          "kilometers" : "47754436",
          "miles" : "29673232"
        },
        "orbiting_body" : "Earth"
      } ],
      "orbital_data" : {
        "orbit_id" : "20",
        "orbit_determination_date" : "2017-07-27 06:21:24",
        "orbit_uncertainty" : "4",
        "minimum_orbit_intersection" : ".0505682",
        "jupiter_tisserand_invariant" : "4.113",
        "epoch_osculation" : "2458000.5",
        "eccentricity" : ".4065541171836934",
        "semi_major_axis" : "1.671912687733708",
        "inclination" : "14.89157831673725",
        "ascending_node_longitude" : "203.280550361847",
        "orbital_period" : "789.6212314350853",
        "perihelion_distance" : ".9921897009639142",
        "perihelion_argument" : "320.4974654014071",
        "aphelion_distance" : "2.351635674503502",
        "perihelion_time" : "2457792.724594141202",
        "mean_anomaly" : "94.72788107941894",
        "mean_motion" : ".4559147926477653",
        "equinox" : "J2000"
      }
    } ]
  }
}